[{"OBJECT_NAME":"UTMN 2 (RS27S)","OBJECT_ID":"2023-091AP","EPOCH":"2026-03-09T23:09:07.917408","MEAN_MOTION":15.29495965,"ECCENTRICITY":0.00097379,"INCLINATION":97.5194,"RA_OF_ASC_NODE":134.949,"ARG_OF_PERICENTER":76.0788,"MEAN_ANOMALY":284.1534,"EPHEMERIS_TYPE":0,"CLASSIFICATION_TYPE":"U","NORAD_CAT_ID":57203,"ELEMENT_SET_NO":999,"REV_AT_EPOCH":14936,"BSTAR":0.00056135701,"MEAN_MOTION_DOT":0.00016013,"MEAN_MOTION_DDOT":0},{"OBJECT_NAME":"STARLINK-35547","OBJECT_ID":"2025-237F","EPOCH":"2026-03-09T05:51:20.794752","MEAN_MOTION":15.30197249,"ECCENTRICITY":0.00012505,"INCLINATION":53.162,"RA_OF_ASC_NODE":41.6006,"ARG_OF_PERICENTER":92.6754,"MEAN_ANOMALY":267.439,"EPHEMERIS_TYPE":0,"CLASSIFICATION_TYPE":"U","NORAD_CAT_ID":66119,"ELEMENT_SET_NO":999,"REV_AT_EPOCH":2254,"BSTAR":0.00054465027,"MEAN_MOTION_DOT":0.00015805,"MEAN_MOTION_DDOT":0}]
